CALSPHERE 1             
1 00900U 64063C   15166.40596943  .00000586  00000-0  62912-3 0  9999
2 00900  90.1385   0.5768 0027853 149.9174 210.3596 13.72455197519480
CALSPHERE 2             
1 00902U 64063E   15166.10247447  .00000048  00000-0  58382-4 0  9990
2 00902  90.1416   2.9093 0018862  22.5932 101.7262 13.52613466312782
LCS 1                   
1 01361U 65034C   15165.99701050  .00000012  00000-0  50111-3 0  9992
2 01361  32.1450   2.2576 0011535 309.8521  50.0961  9.89288379812109
TEMPSAT 1               
1 01512U 65065E   15166.24074926  .00000025  00000-0  31784-4 0  9998
2 01512  89.8014 255.8719 0070261  17.5091   9.6651 13.33375384424329
CALSPHERE 4(A)          
1 01520U 65065H   15166.39617255  .00000076  00000-0  13278-3 0  9994
2 01520  90.1116 115.7579 0066846 279.0731 209.5154 13.35655560426021
OPS 5712 (P/L 160)      
1 02826U 67053A   15167.53390610  .00002688  00000-0  76552-3 0  9998
2 02826  69.9292 149.3524 0006931 321.5751  38.4886 14.46298730482823
OPS 5712 (P/L 153)      
1 02874U 67053H   15166.20138412  .00000017  00000-0  51082-4 0  9990
2 02874  69.9745  86.0954 0007297 352.3083 114.0320 13.96225382445605
SURCAL 150B             
1 02909U 67053J   15166.38426143  .00003948  00000-0  87577-3 0  9992
2 02909  69.9515 256.3587 0002128  99.9212 260.2165 14.57808381489859
RIGIDSPHERE 2 (LCS 4)   
1 05398U 71067E   15167.85896698  .00000575  00000-0  19820-3 0  9995
2 05398  87.6219   7.8276 0063982 173.7805 186.4201 14.33198815298025
